IRIDIUM 26              
1 24903U 97043A   25365.49571507  .00000765  00000+0  24988-3 0  9991
2 24903  86.3945  27.6770 0002320  95.8941 264.2521 14.37344882485088
IRIDIUM 22              
1 24907U 97043E   25365.45044972  .00000638  00000+0  21237-3 0  9995
2 24907  86.3946  31.4054 0002330  91.0788 269.0676 14.36136602485081
DUMMY MASS 1            
1 24925U 97048A   25365.51107046  .00000718  00000+0  76626-4 0  9991
2 24925  86.3327  44.0174 0007537 148.6325 211.5351 14.87200869534458
DUMMY MASS 2            
1 24926U 97048B   25365.50619105  .00000713  00000+0  76564-4 0  9991
2 24926  86.3327  45.6641 0007813 160.9714 199.1804 14.86951258534224
IRIDIUM 29              
1 24944U 97051A   25365.40151587  .00000691  00000+0  22825-3 0  9994
2 24944  86.3936  61.1064 0002182  89.0316 271.1131 14.36679853481582
IRIDIUM 33              
1 24946U 97051C   25365.25426689  .00000579  00000+0  19610-3 0  9990
2 24946  86.3852  60.4486 0009101 142.8126 217.3702 14.35051978481000
IRIDIUM 28              
1 24948U 97051E   25365.39005955  .00000691  00000+0  22414-3 0  9997
2 24948  86.3941  58.5141 0002532 104.9514 255.1964 14.37579948482171
IRIDIUM 36              
1 24967U 97056C   25365.32267949  .00000792  00000+0  25666-3 0  9993
2 24967  86.3959  90.1714 0002386  97.3064 262.8405 14.37803565480540
